STARLINK-1862_new
1 17149C 20088AD  21326.12818340  .00001889  00000-0  12657-3 0  3268
2 17149  53.0518 143.1702 0001762  81.6019 308.6823 15.06392913    18
STARLINK-1862_old
1 27149C 20088AD  21325.13283054  .00002285  00000-0  15316-3 0  3251
2 27149  53.0516 147.6386 0001791  79.6299 309.8581 15.06388987    12
